{"9-I35-1":{"sectionID":"9-I35-1","Highway":"IH 35","Refmark":"MP 361-0.2","County":"Hill","District":"Waco","DataType":"Level 1 Sections"},"9-I35-2":{"sectionID":"9-I35-2","Highway":"IH 35","Refmark":"Exit 333 B","County":"McLennan","District":"Waco","DataType":"Level 1 Sections"},"ABLSH226[WT]":{"sectionID":"ABLSH226[WT]","Highway":"SH 226","Refmark":null,"County":null,"District":"Abilene","DataType":"Whitetopping"},"ABLSH36@FM1750":{"sectionID":"ABLSH36@FM1750","Highway":"SH 36","Refmark":null,"County":null,"District":"Abilene","DataType":"Whitetopping"},"ABLUS83B[WT]":{"sectionID":"ABLUS83B[WT]","Highway":"US 83B","Refmark":null,"County":null,"District":"Abilene","DataType":"Whitetopping"},"AMA-IH40-Level2":{"sectionID":"AMA-IH40-Level2","Highway":"IH 40","Refmark":null,"County":"Gray-Carson","District":"Amarillo","DataType":"General Sections"},"AMA-IH40_0275-04-026":{"sectionID":"AMA-IH40_0275-04-026","Highway":"IH 40","Refmark":null,"County":"Gray-Carson","District":"Amarillo","DataType":"General Sections"},"AMA-VA-0904-11-037":{"sectionID":"AMA-VA-0904-11-037","Highway":"VA","Refmark":null,"County":"Randall","District":"Amarillo","DataType":"CPCD"},"ATL-FM3129-0945-05-016":{"sectionID":"ATL-FM3129-0945-05-016","Highway":"FM 3129","Refmark":null,"County":"Cass","District":"Atlanta","DataType":"CPCD"},"ATL-IH20-0495-10-075":{"sectionID":"ATL-IH20-0495-10-075","Highway":"IH 20","Refmark":null,"County":"Harrison","District":"Atlanta","DataType":"CPCD"},"ATL-IH20-0495-10-078":{"sectionID":"ATL-IH20-0495-10-078","Highway":"IH 20","Refmark":null,"County":"Harrison","District":"Atlanta","DataType":"CPCD"},"ATL-IH30-0610-07-085":{"sectionID":"ATL-IH30-0610-07-085","Highway":"IH 30","Refmark":null,"County":"Bowie","District":"Atlanta","DataType":"CPCD"},"ATL-US 59-0218-01-072":{"sectionID":"ATL-US 59-0218-01-072","Highway":"US 59","Refmark":null,"County":"Bowie","District":"Atlanta","DataType":"General Sections"},"ATL-US 71-2050-03-004":{"sectionID":"ATL-US 71-2050-03-004","Highway":"US 71","Refmark":null,"County":"Bowie","District":"Atlanta","DataType":"General Sections"},"ATL-US 79-0063-11-039":{"sectionID":"ATL-US 79-0063-11-039","Highway":"US 79","Refmark":"308+1.363 to 312+2.944","County":"Panola","District":"Atlanta","DataType":"General Sections"},"ATL-US47-0218-04-008":{"sectionID":"ATL-US47-0218-04-008","Highway":"US 47","Refmark":null,"County":"Cass","District":"Atlanta","DataType":"General Sections"},"ATL-US59-0062-04-035":{"sectionID":"ATL-US59-0062-04-035","Highway":"US 59","Refmark":null,"County":"Cass","District":"Atlanta","DataType":"CPCD"},"ATL-US59-0063-04-047":{"sectionID":"ATL-US59-0063-04-047","Highway":"US 59","Refmark":"312+0.843 to 314+0.774","County":"Panola","District":"Atlanta","DataType":"General Sections"},"ATL-US59-0218-04-076":{"sectionID":"ATL-US59-0218-04-076","Highway":"US 59","Refmark":null,"County":"Cass","District":"Atlanta","DataType":"CPCD"},"ATL-US59_0218-01-072":{"sectionID":"ATL-US59_0218-01-072","Highway":"US 59","Refmark":"MP 220+1.5 to 222+1.8","County":"Bowie","District":"Atlanta","DataType":"General Sections"},"ATL-US67-0010-13-084":{"sectionID":"ATL-US67-0010-13-084","Highway":"US 67","Refmark":null,"County":"BOWIE","District":"Atlanta","DataType":"CPCD"},"ATL-US71_2050-03-004":{"sectionID":"ATL-US71_2050-03-004","Highway":"US 71","Refmark":null,"County":"Bowie","District":"Atlanta","DataType":"General Sections"},"ATL-US79-0063-11-039":{"sectionID":"ATL-US79-0063-11-039","Highway":"US 79","Refmark":"308+1.363 to 312+2.944","County":"Panola","District":"Atlanta","DataType":"General Sections"},"ATL-US79-0063-11-051":{"sectionID":"ATL-US79-0063-11-051","Highway":"US 79","Refmark":"312+00.716 to 312+1.787","County":"Panola","District":"Atlanta","DataType":"General Sections"},"ATL-US79_0063-11-039":{"sectionID":"ATL-US79_0063-11-039","Highway":"US 79","Refmark":"MP 308+1.3 to 312+3.6","County":"Panola","District":"Atlanta","DataType":"General Sections"}}