{"BMT-US90_ 0028-13-014":{"sectionID":"BMT-US90_ 0028-13-014","Highway":"US 90","Refmark":null,"County":"Jefferson","District":"Beaumont","DataType":"CPCD"},"BMT-US90_0028-03-081":{"sectionID":"BMT-US90_0028-03-081","Highway":"US 90","Refmark":"MP 874+0.8 to 876+0.7","County":"Liberty","District":"Beaumont","DataType":"CPCD"},"BMT-US90_0028-06-024":{"sectionID":"BMT-US90_0028-06-024","Highway":"US 90","Refmark":"MP 914+1.0 to 915+0.5","County":"Jefferson","District":"Beaumont","DataType":"CPJR"},"BMT-US90_0028-07-024":{"sectionID":"BMT-US90_0028-07-024","Highway":"US 90","Refmark":"MP 915+0.5 to 922+0.7","County":"Jefferson","District":"Beaumont","DataType":"CPJR"},"BMT-US90_0028-13-001":{"sectionID":"BMT-US90_0028-13-001","Highway":"US 90","Refmark":null,"County":"Jefferson","District":"Beaumont","DataType":"CPCD"},"BMT-US90_0028-13-003":{"sectionID":"BMT-US90_0028-13-003","Highway":"US 90","Refmark":null,"County":"Jefferson","District":"Beaumont","DataType":"CPCD"},"BMT-US90_0028-13-004":{"sectionID":"BMT-US90_0028-13-004","Highway":"US 90","Refmark":null,"County":"Jefferson","District":"Beaumont","DataType":"CPCD"},"BMT-US90_0028-13-017":{"sectionID":"BMT-US90_0028-13-017","Highway":"US 90","Refmark":null,"County":"Jefferson","District":"Beaumont","DataType":"CPCD"},"BMT-US96-0065-06-011":{"sectionID":"BMT-US96-0065-06-011","Highway":"US 96","Refmark":null,"County":"Hardin & Jefferson","District":"Beaumont","DataType":null},"BMT-US96-0065-08-025":{"sectionID":"BMT-US96-0065-08-025","Highway":"US 96","Refmark":null,"County":"Jefferson","District":"Beaumont","DataType":null},"BMT-US96-0200-15-013":{"sectionID":"BMT-US96-0200-15-013","Highway":"US 69","Refmark":"MP 536+0.392 RM 538+0.901","County":"JEFFERSON","District":"Beaumont","DataType":"CPCD"},"BMT-US96-0200-15-015":{"sectionID":"BMT-US96-0200-15-015","Highway":"US 69","Refmark":"MP 537+0.987 RM 538+0.097","County":"JEFFERSON","District":"Beaumont","DataType":"CPCD"},"BMT-US96-0200-16-012":{"sectionID":"BMT-US96-0200-16-012","Highway":"US 69","Refmark":"MP 542+0.385 RM 544+0.007","County":"JEFFERSON","District":"Beaumont","DataType":"CPCD"},"BRY-BS6-R-0050-01-060":{"sectionID":"BRY-BS6-R-0050-01-060","Highway":"BS6-R","Refmark":null,"County":"Brazos","District":"Bryan","DataType":"CPCD"},"BRY-IH45-0675-01-051":{"sectionID":"BRY-IH45-0675-01-051","Highway":"IH 45","Refmark":null,"County":"Freestone","District":"Bryan","DataType":"CPCD"},"BRY-IH45-0675-07-065":{"sectionID":"BRY-IH45-0675-07-065","Highway":"IH 45","Refmark":null,"County":"Walker","District":"Bryan","DataType":"CPCD"},"BRY-IH45-0675-07-082":{"sectionID":"BRY-IH45-0675-07-082","Highway":"IH 45","Refmark":null,"County":"Walker","District":"Bryan","DataType":"CPCD"},"BRY-SH21-0116-04-086":{"sectionID":"BRY-SH21-0116-04-086","Highway":"SH 21","Refmark":null,"County":"Brazos","District":"Bryan","DataType":"CPCD"},"BRY-SH21-0116-04-091":{"sectionID":"BRY-SH21-0116-04-091","Highway":"SH 21","Refmark":null,"County":"Brazos","District":"Bryan","DataType":"CPCD"},"BW8-HOU-Aggregate_Type":{"sectionID":"BW8-HOU-Aggregate_Type","Highway":"BW 8","Refmark":null,"County":null,"District":"Houston","DataType":"Steel Percentage Effects"},"BW8-HOU-Steel_Ratio":{"sectionID":"BW8-HOU-Steel_Ratio","Highway":"BW 8","Refmark":null,"County":null,"District":"Houston","DataType":"Steel Percentage Effects"},"BW8[FT]":{"sectionID":"BW8[FT]","Highway":"BW 8","Refmark":null,"County":null,"District":"Houston","DataType":"Fast Track Pavement"},"CHS-US83-0030-09-040":{"sectionID":"CHS-US83-0030-09-040","Highway":"US 83","Refmark":null,"County":"WHEELER","District":"Childress","DataType":"CPCD"},"DAL-BS121H-0364-03-092":{"sectionID":"DAL-BS121H-0364-03-092","Highway":"BS 121H","Refmark":null,"County":"Denton","District":"Dallas","DataType":"CPCD"},"DAL-CS-0918-22-085":{"sectionID":"DAL-CS-0918-22-085","Highway":"CS","Refmark":null,"County":"Ellis","District":"Dallas","DataType":"CPCD"}}