{"IH20[UBCO]":{"sectionID":"IH20[UBCO]","Highway":"IH 20","Refmark":null,"County":null,"District":"Ft Worth","DataType":"Unbonded Overlay"},"IH30[BCO]":{"sectionID":"IH30[BCO]","Highway":"IH 30","Refmark":null,"County":null,"District":null,"DataType":"Bonded Overlay"},"IH35[UBCO]":{"sectionID":"IH35[UBCO]","Highway":"IH 35","Refmark":null,"County":null,"District":"Laredo","DataType":"Unbonded Overlay"},"IH35Hillsboro[PTCP]":{"sectionID":"IH35Hillsboro[PTCP]","Highway":"IH 35","Refmark":null,"County":null,"District":"Waco","DataType":"Cast-in-place prestressed pavement"},"IH35West[PTCP]":{"sectionID":"IH35West[PTCP]","Highway":"IH 35","Refmark":null,"County":null,"District":"Waco","DataType":"Cast-in-place prestressed pavement"},"IH45-HOU-Aggregate_Type":{"sectionID":"IH45-HOU-Aggregate_Type","Highway":"IH 45","Refmark":null,"County":null,"District":"Houston","DataType":"Coarse Aggregate Effects"},"IH45-HOU-Steel_Ratio":{"sectionID":"IH45-HOU-Steel_Ratio","Highway":"IH 45","Refmark":null,"County":null,"District":"Houston","DataType":"Coarse Aggregate Effects"},"IH45[FT]":{"sectionID":"IH45[FT]","Highway":"IH 45","Refmark":null,"County":null,"District":"Houston","DataType":"Fast Track Pavement"},"IH610N[BCO]":{"sectionID":"IH610N[BCO]","Highway":"IH 610","Refmark":null,"County":null,"District":"Houston","DataType":"Bonded Overlay"},"IH610S[BCO]":{"sectionID":"IH610S[BCO]","Highway":"IH 610","Refmark":null,"County":null,"District":"Houston","DataType":"Bonded Overlay"},"LBB-IH27-0067-04-028":{"sectionID":"LBB-IH27-0067-04-028","Highway":"IH27","Refmark":" to","County":"Hale","District":"Lubbock","DataType":"General Sections"},"LBB-IH27-0067-11-020":{"sectionID":"LBB-IH27-0067-11-020","Highway":"IH27","Refmark":" to","County":"Lubbock","District":"Lubbock","DataType":"General Sections"},"LBB-IH27-0067-11-021":{"sectionID":"LBB-IH27-0067-11-021","Highway":"IH27","Refmark":" to","County":"Lubbock","District":"Lubbock","DataType":"General Sections"},"LBB-IH27-0067-11-022":{"sectionID":"LBB-IH27-0067-11-022","Highway":"IH27","Refmark":" to","County":"Lubbock","District":"Lubbock","DataType":"General Sections"},"LBB-IH27-0067-11-027":{"sectionID":"LBB-IH27-0067-11-027","Highway":"IH27","Refmark":" to","County":"Lubbock","District":"Lubbock","DataType":"General Sections"},"LFK-SH7-0059-05-033":{"sectionID":"LFK-SH7-0059-05-033","Highway":"SH 7","Refmark":null,"County":"Shelby","District":"Lufkin","DataType":"CPCD"},"LFK-US287-0109-04-025":{"sectionID":"LFK-US287-0109-04-025","Highway":"US 287","Refmark":null,"County":"Houston","District":"Lufkin","DataType":"CPCD"},"LFK-US59-0176-03-126":{"sectionID":"LFK-US59-0176-03-126","Highway":"US 59","Refmark":null,"County":"Angelina","District":"Lufkin","DataType":"CPCD"},"LFK-VA-0911-00-056":{"sectionID":"LFK-VA-0911-00-056","Highway":"VA","Refmark":null,"County":"Angelina","District":"Lufkin","DataType":"CPCD"},"LRD-FM1472-2150-04-053":{"sectionID":"LRD-FM1472-2150-04-053","Highway":"FM 1472","Refmark":null,"County":"Webb","District":"Laredo","DataType":"CPCD"},"LRD-IH35-0018-06-150":{"sectionID":"LRD-IH35-0018-06-150","Highway":"IH 35","Refmark":null,"County":"Webb","District":"Laredo","DataType":"CPCD"},"LRD-LP20-0086-14-022":{"sectionID":"LRD-LP20-0086-14-022","Highway":"LP 20","Refmark":null,"County":"Webb","District":"Laredo","DataType":"CPCD"},"ODA181-1[WT]":{"sectionID":"ODA181-1[WT]","Highway":"ODA 181-1","Refmark":null,"County":null,"District":"Odessa","DataType":"Whitetopping"},"ODA181-2[WT]":{"sectionID":"ODA181-2[WT]","Highway":"ODA 181-2","Refmark":null,"County":null,"District":"Odessa","DataType":"Whitetopping"},"ODA250-1[WT]":{"sectionID":"ODA250-1[WT]","Highway":"ODA 250-1","Refmark":null,"County":null,"District":"Odessa","DataType":"Whitetopping"}}