{"DAL-IH 45-0093-01-064":{"sectionID":"DAL-IH 45-0093-01-064","Highway":"IH 45","Refmark":null,"County":"Navarro","District":"Dallas","DataType":"CPCD"},"DAL-IH20-0095-13-029":{"sectionID":"DAL-IH20-0095-13-029","Highway":"IH 20","Refmark":null,"County":"Dallas","District":"Dallas","DataType":"CPCD"},"DAL-IH20-0495-01-050":{"sectionID":"DAL-IH20-0495-01-050","Highway":"IH 20","Refmark":null,"County":"Dallas","District":"Dallas","DataType":"CPCD"},"DAL-IH20-0495-01-053":{"sectionID":"DAL-IH20-0495-01-053","Highway":"IH 20","Refmark":null,"County":"Kaufman","District":"Dallas","DataType":"CPCD"},"DAL-IH20-2374-03-056":{"sectionID":"DAL-IH20-2374-03-056","Highway":"IH 20","Refmark":null,"County":"Dallas","District":"Dallas","DataType":"CPCD"},"DAL-IH20-2374-04-064":{"sectionID":"DAL-IH20-2374-04-064","Highway":"IH 20","Refmark":null,"County":"Dallas","District":"Dallas","DataType":"CPCD"},"DAL-IH20_0014-30-020":{"sectionID":"DAL-IH20_0014-30-020","Highway":"IH 20","Refmark":"MP 482+0.0 to 496+0.0","County":"Dallas","District":"Dallas","DataType":"CPCD"},"DAL-IH30-0009-11-195":{"sectionID":"DAL-IH30-0009-11-195","Highway":"IH 30","Refmark":null,"County":"Dallas","District":"Dallas","DataType":"CPCD"},"DAL-IH30-0009-11-206":{"sectionID":"DAL-IH30-0009-11-206","Highway":"IH 30","Refmark":null,"County":"Dallas","District":"Dallas","DataType":"CPCD"},"DAL-IH30-0009-11-217":{"sectionID":"DAL-IH30-0009-11-217","Highway":"IH 30","Refmark":null,"County":"Dallas","District":"Dallas","DataType":"CPCD"},"DAL-IH30-1068-04-110":{"sectionID":"DAL-IH30-1068-04-110","Highway":"IH 30","Refmark":null,"County":"Dallas","District":"Dallas","DataType":"CPCD"},"DAL-IH30-6206-13-001":{"sectionID":"DAL-IH30-6206-13-001","Highway":"IH 30","Refmark":null,"County":"ROCKWALL","District":"Dallas","DataType":"CPCD"},"DAL-IH35-0195-02-016":{"sectionID":"DAL-IH35-0195-02-016","Highway":"IH 35","Refmark":null,"County":"Denton","District":"Dallas","DataType":"CPCD"},"DAL-IH35-0195-02-035":{"sectionID":"DAL-IH35-0195-02-035","Highway":"IH 35","Refmark":null,"County":"Denton","District":"Dallas","DataType":"CPCD"},"DAL-IH35-0195-03-062":{"sectionID":"DAL-IH35-0195-03-062","Highway":"IH 35","Refmark":null,"County":"Denton","District":"Dallas","DataType":"CPCD"},"DAL-IH35E-0048-08-003":{"sectionID":"DAL-IH35E-0048-08-003","Highway":"IH 35E","Refmark":null,"County":"ELLIS","District":"Dallas","DataType":"CPCD"},"DAL-IH35E-0195-03-066":{"sectionID":"DAL-IH35E-0195-03-066","Highway":"IH 35E","Refmark":null,"County":"Denton","District":"Dallas","DataType":"CPCD"},"DAL-IH35E-0196-01-092":{"sectionID":"DAL-IH35E-0196-01-092","Highway":"IH 35E","Refmark":null,"County":"Denton","District":"Dallas","DataType":"CPCD"},"DAL-IH35E-0196-01-093":{"sectionID":"DAL-IH35E-0196-01-093","Highway":"IH 35E","Refmark":null,"County":"Denton","District":"Dallas","DataType":"CPCD"},"DAL-IH35E-0196-02-098":{"sectionID":"DAL-IH35E-0196-02-098","Highway":"IH 35E","Refmark":null,"County":"Denton","District":"Dallas","DataType":"CPCD"},"DAL-IH35E-0196-02-101":{"sectionID":"DAL-IH35E-0196-02-101","Highway":"IH 35E","Refmark":null,"County":"Denton","District":"Dallas","DataType":"CPCD"},"DAL-IH35E-0196-02-102":{"sectionID":"DAL-IH35E-0196-02-102","Highway":"IH 35E","Refmark":null,"County":"Denton","District":"Dallas","DataType":"CPCD"},"DAL-IH35E-0196-03-106":{"sectionID":"DAL-IH35E-0196-03-106","Highway":"IH 35E","Refmark":null,"County":"Dallas","District":"Dallas","DataType":"CPCD"},"DAL-IH35E-0196-03-191":{"sectionID":"DAL-IH35E-0196-03-191","Highway":"IH 35E","Refmark":null,"County":"Dallas","District":"Dallas","DataType":"CPCD"},"DAL-IH35E-0196-03-192":{"sectionID":"DAL-IH35E-0196-03-192","Highway":"IH 35E","Refmark":null,"County":"Dallas","District":"Dallas","DataType":"CPCD"}}