{"HOU-US59-0027-13-138":{"sectionID":"HOU-US59-0027-13-138","Highway":"US 59","Refmark":null,"County":"Harris","District":"Houston","DataType":"General Sections"},"HOU-US59-0027-13-159":{"sectionID":"HOU-US59-0027-13-159","Highway":"US 59","Refmark":null,"County":"Harris","District":"Houston","DataType":"General Sections"},"HOU-US59-0027-13-165":{"sectionID":"HOU-US59-0027-13-165","Highway":"US 59","Refmark":null,"County":"Harris","District":"Houston","DataType":"General Sections"},"HOU-US59-0027-13-171":{"sectionID":"HOU-US59-0027-13-171","Highway":"US 59","Refmark":null,"County":"Harris","District":"Houston","DataType":"General Sections"},"HOU-US59-0177-05-055":{"sectionID":"HOU-US59-0177-05-055","Highway":"US 59","Refmark":"486+1.177 to 488+1.230","County":"Montgomery","District":"Houston","DataType":"General Sections"},"HOU-US59-0177-05-057":{"sectionID":"HOU-US59-0177-05-057","Highway":"US 59","Refmark":"484+0.438 to 486+1.186","County":"Montgomery","District":"Houston","DataType":"General Sections"},"HOU-US59-0177-05-058":{"sectionID":"HOU-US59-0177-05-058","Highway":"US 59","Refmark":"482+0.222 to 484+0.438","County":"Montgomery","District":"Houston","DataType":"General Sections"},"HOU-US59-0177-05-059":{"sectionID":"HOU-US59-0177-05-059","Highway":"US 59","Refmark":"476+1.422 to 480+0.501","County":"Montgomery","District":"Houston","DataType":"General Sections"},"HOU-US59-0177-05-088":{"sectionID":"HOU-US59-0177-05-088","Highway":"US 59","Refmark":"472+0.985 to 474+1.227","County":"Montgomery","District":"Houston","DataType":"General Sections"},"HOU-US59-0177-05-091":{"sectionID":"HOU-US59-0177-05-091","Highway":"US 59","Refmark":"476+0.097 to 478+1.555","County":"Montgomery","District":"Houston","DataType":"General Sections"},"HOU-US59-0177-06-044":{"sectionID":"HOU-US59-0177-06-044","Highway":"US 59","Refmark":"492+0.107 to 452+0.438","County":"Harris","District":"Houston","DataType":"General Sections"},"HOU-US59-0177-06-062":{"sectionID":"HOU-US59-0177-06-062","Highway":"US 59","Refmark":"492+0.210 to 491+0.220","County":"Harris","District":"Houston","DataType":"General Sections"},"HOU-US59-0177-07-074":{"sectionID":"HOU-US59-0177-07-074","Highway":"US 59","Refmark":"498+0.730 to 500+0.354","County":"Harris","District":"Houston","DataType":"General Sections"},"HOU-US59-0177-07-077":{"sectionID":"HOU-US59-0177-07-077","Highway":"US 59","Refmark":"496+1.842 to 496+0.838","County":"Harris","District":"Houston","DataType":"General Sections"},"HOU-US59-0177-07-080":{"sectionID":"HOU-US59-0177-07-080","Highway":"US 59","Refmark":"496+0.825 to 492+1.533","County":"Harris","District":"Houston","DataType":"General Sections"},"HOU-US59-0177-07-088":{"sectionID":"HOU-US59-0177-07-088","Highway":"US 59","Refmark":"498+0.749 to 496+1.842","County":"Harris","District":"Houston","DataType":"General Sections"},"HOU-US59-0177-11-083":{"sectionID":"HOU-US59-0177-11-083","Highway":"US 59","Refmark":"504+0.847 to 502+1.563","County":"Harris","District":"Houston","DataType":"General Sections"},"HOU-US59-0177-11-105":{"sectionID":"HOU-US59-0177-11-105","Highway":"US 59","Refmark":"506+1.498 to 506+0.468","County":"Harris","District":"Houston","DataType":"General Sections"},"HOU-US90-0027-09-011":{"sectionID":"HOU-US90-0027-09-011","Highway":"US 90","Refmark":null,"County":"Harris","District":"Houston","DataType":"General Sections"},"HOU-US90-0028-02-044":{"sectionID":"HOU-US90-0028-02-044","Highway":"US 90","Refmark":"0848-1.977 to 0848-1.104","County":"Harris","District":"Houston","DataType":"General Sections"},"HOU-US90-0028-02-070":{"sectionID":"HOU-US90-0028-02-070","Highway":"US 90","Refmark":null,"County":"Harris","District":"Houston","DataType":"General Sections"},"HOU-US90A-0027-09-070":{"sectionID":"HOU-US90A-0027-09-070","Highway":"US 90A","Refmark":null,"County":"Harris","District":"Houston","DataType":"General Sections"},"HOU-US90A-0027-10-067":{"sectionID":"HOU-US90A-0027-10-067","Highway":"US 90A","Refmark":"700+0.087 to 700+0.276","County":"Harris","District":"Houston","DataType":"General Sections"},"HOU-VA-0912-72-088":{"sectionID":"HOU-VA-0912-72-088","Highway":"VA","Refmark":null,"County":"Harris","District":"Houston","DataType":"CPCD"},"IH10[RCA]":{"sectionID":"IH10[RCA]","Highway":"IH 10","Refmark":null,"County":null,"District":"Houston","DataType":"Recycled Concrete Pavement"}}