{"DAL-SH 289-0091-05-029":{"sectionID":"DAL-SH 289-0091-05-029","Highway":"SH 289","Refmark":null,"County":"Collin","District":"Dallas","DataType":"CPCD"},"DAL-SH 31-0163-01-049":{"sectionID":"DAL-SH 31-0163-01-049","Highway":"SH 31","Refmark":null,"County":"NAVARRO","District":"Dallas","DataType":null},"DAL-SH 31-0163-02-019":{"sectionID":"DAL-SH 31-0163-02-019","Highway":"SH 31","Refmark":null,"County":"Navarro","District":"Dallas","DataType":"CPCD"},"DAL-SH 66-0009-03-016":{"sectionID":"DAL-SH 66-0009-03-016","Highway":"SH 66","Refmark":null,"County":"Dallas/Navarro","District":"Dallas","DataType":"CPCD"},"DAL-SH 78-0009-02-022":{"sectionID":"DAL-SH 78-0009-02-022","Highway":"SH 78","Refmark":null,"County":"Dallas","District":"Dallas","DataType":"CPCD"},"DAL-SH 78-0009-02-024":{"sectionID":"DAL-SH 78-0009-02-024","Highway":"SH 78","Refmark":null,"County":"Dallas","District":"Dallas","DataType":"CPCD"},"DAL-SH 78-0009-02-028":{"sectionID":"DAL-SH 78-0009-02-028","Highway":"SH 78","Refmark":null,"County":"Dallas","District":"Dallas","DataType":"CPCD"},"DAL-SH114-0353-04-084":{"sectionID":"DAL-SH114-0353-04-084","Highway":"SH 114","Refmark":null,"County":"Dallas","District":"Dallas","DataType":"CPCD"},"DAL-SH114-0353-04-090":{"sectionID":"DAL-SH114-0353-04-090","Highway":"SH 114","Refmark":null,"County":"Dallas","District":"Dallas","DataType":"CPCD"},"DAL-SH114-0353-06-046":{"sectionID":"DAL-SH114-0353-06-046","Highway":"SH 114","Refmark":null,"County":"Dallas","District":"Dallas","DataType":"CPCD"},"DAL-SH121-3547-01-008":{"sectionID":"DAL-SH121-3547-01-008","Highway":"SH 121","Refmark":null,"County":"Denton","District":"Dallas","DataType":"CPCD"},"DAL-SH121-3547-01-010":{"sectionID":"DAL-SH121-3547-01-010","Highway":"SH 121","Refmark":null,"County":"Denton","District":"Dallas","DataType":"CPCD"},"DAL-SH161-2964-01-024":{"sectionID":"DAL-SH161-2964-01-024","Highway":"SH 161","Refmark":null,"County":"Dallas","District":"Dallas","DataType":"CPCD"},"DAL-SH180-0008-08-059":{"sectionID":"DAL-SH180-0008-08-059","Highway":"SH 180","Refmark":null,"County":"Dallas","District":"Dallas","DataType":"CPCD"},"DAL-SH180-0008-08-067":{"sectionID":"DAL-SH180-0008-08-067","Highway":"SH 180","Refmark":null,"County":"Dallas","District":"Dallas","DataType":"CPCD"},"DAL-SH183-0094-03-087":{"sectionID":"DAL-SH183-0094-03-087","Highway":"SH 183","Refmark":null,"County":"Dallas","District":"Dallas","DataType":"General Sections"},"DAL-SH183-0094-03-088":{"sectionID":"DAL-SH183-0094-03-088","Highway":"SH 183","Refmark":null,"County":"Dallas","District":"Dallas","DataType":"CPCD"},"DAL-SH183-0094-03-092":{"sectionID":"DAL-SH183-0094-03-092","Highway":"SH 183","Refmark":null,"County":"Dallas","District":"Dallas","DataType":"CPCD"},"DAL-SH183-0094-03-094":{"sectionID":"DAL-SH183-0094-03-094","Highway":"SH 183","Refmark":null,"County":"Dallas","District":"Dallas","DataType":"CPCD"},"DAL-SH183-0094-03-095":{"sectionID":"DAL-SH183-0094-03-095","Highway":"SH 183","Refmark":null,"County":"Dallas","District":"Dallas","DataType":"CPCD"},"DAL-SH183-0094-03-105":{"sectionID":"DAL-SH183-0094-03-105","Highway":"SH 183","Refmark":null,"County":"Dallas","District":"Dallas","DataType":"CPCD"},"DAL-SH183-0094-07-036":{"sectionID":"DAL-SH183-0094-07-036","Highway":"SH 183","Refmark":null,"County":"Dallas","District":"Dallas","DataType":"CPCD"},"DAL-SH183_0094-02-006":{"sectionID":"DAL-SH183_0094-02-006","Highway":"SH 183","Refmark":null,"County":"Dallas and Tarrant","District":"Dallas","DataType":"CPCD"},"DAL-SH289-0091-05-028":{"sectionID":"DAL-SH289-0091-05-028","Highway":"SH 289","Refmark":null,"County":"COLLIN","District":"Dallas","DataType":"CPCD"},"DAL-SH289-0091-05-029":{"sectionID":"DAL-SH289-0091-05-029","Highway":"SH 289","Refmark":null,"County":"COLLIN","District":"Dallas","DataType":"CPCD"}}