{"HOU-IH45_0500-04-043":{"sectionID":"HOU-IH45_0500-04-043","Highway":"IH 45","Refmark":null,"County":"Galveston","District":"Houston","DataType":"General Sections"},"HOU-IH45_0500-04-055":{"sectionID":"HOU-IH45_0500-04-055","Highway":"IH 45","Refmark":null,"County":"Galveston","District":"Houston","DataType":"General Sections"},"HOU-IH45_0500-04-056":{"sectionID":"HOU-IH45_0500-04-056","Highway":"IH 45","Refmark":null,"County":"Galveston","District":"Houston","DataType":"General Sections"},"HOU-IH45_0500-04-085":{"sectionID":"HOU-IH45_0500-04-085","Highway":"IH 45","Refmark":null,"County":"Galveston","District":"Houston","DataType":"General Sections"},"HOU-IH45_0500-04-092":{"sectionID":"HOU-IH45_0500-04-092","Highway":"IH 45","Refmark":null,"County":"Galveston","District":"Houston","DataType":"General Sections"},"HOU-IH45_0500-04-118":{"sectionID":"HOU-IH45_0500-04-118","Highway":"IH 45","Refmark":null,"County":"Galveston","District":"Houston","DataType":"General Sections"},"HOU-IH610-0271-14-196":{"sectionID":"HOU-IH610-0271-14-196","Highway":"IH 610","Refmark":"17+0.891 to 20+0.227","County":"Harris","District":"Houston","DataType":"General Sections"},"HOU-SH 288-0598-02-043":{"sectionID":"HOU-SH 288-0598-02-043","Highway":"SH 288","Refmark":"484+00.730 to 498+01.955","County":"Brazoria","District":"Houston","DataType":"General Sections"},"HOU-SH 288-0598-02-050":{"sectionID":"HOU-SH 288-0598-02-050","Highway":"SH 288","Refmark":"496+01.966 to 506+01.331","County":"Brazoria","District":"Houston","DataType":"General Sections"},"HOU-SH 332-0586-01-049":{"sectionID":"HOU-SH 332-0586-01-049","Highway":"SH 332","Refmark":null,"County":"Brazoria","District":"Houston","DataType":"General Sections"},"HOU-SH225-0502-01-183":{"sectionID":"HOU-SH225-0502-01-183","Highway":"SH 225","Refmark":null,"County":"Harris","District":"Houston","DataType":"CPCD"},"HOU-SH242-3538-01-003":{"sectionID":"HOU-SH242-3538-01-003","Highway":"SH 242","Refmark":"674+0.0 to 676+0.217","County":"Montgomery","District":"Houston","DataType":"General Sections"},"HOU-SH242-3538-01-013":{"sectionID":"HOU-SH242-3538-01-013","Highway":"SH 242","Refmark":"670+0.49 to 672+0.20","County":"Montgomery","District":"Houston","DataType":"General Sections"},"HOU-SH249-0720-02-053":{"sectionID":"HOU-SH249-0720-02-053","Highway":"SH 249","Refmark":"448+0.892 to 446+1.263","County":"Montgomery","District":"Houston","DataType":"General Sections"},"HOU-SH35-0178-09-025":{"sectionID":"HOU-SH35-0178-09-025","Highway":"SH 35","Refmark":"468+1.678 to 470+1.003","County":"Harris","District":"Houston","DataType":"General Sections"},"HOU-US290-0050-06-033":{"sectionID":"HOU-US290-0050-06-033","Highway":"US 290","Refmark":null,"County":"Harris","District":"Houston","DataType":"General Sections"},"HOU-US290-0050-06-045":{"sectionID":"HOU-US290-0050-06-045","Highway":"US 290","Refmark":"712A+0.894 to 712A+2.518","County":"Harris","District":"Houston","DataType":"General Sections"},"HOU-US290-0050-06-055":{"sectionID":"HOU-US290-0050-06-055","Highway":"US 290","Refmark":"716+1.366 to 716+2.863","County":"Harris","District":"Houston","DataType":"General Sections"},"HOU-US290-0050-06-056":{"sectionID":"HOU-US290-0050-06-056","Highway":"US 290","Refmark":"712A+2.518 to 714+0.742","County":"Harris","District":"Houston","DataType":"General Sections"},"HOU-US290-0050-06-057":{"sectionID":"HOU-US290-0050-06-057","Highway":"US 290","Refmark":"714+0.389 to 714+1.867","County":"Harris","District":"Houston","DataType":"General Sections"},"HOU-US290-0050-06-058":{"sectionID":"HOU-US290-0050-06-058","Highway":"US 290","Refmark":"718+0.709 to 718+1.881","County":"Harris","District":"Houston","DataType":"General Sections"},"HOU-US290-0050-06-068":{"sectionID":"HOU-US290-0050-06-068","Highway":"US 290","Refmark":"714+01.278 to 716+01.678","County":"Harris","District":"Houston","DataType":"General Sections"},"HOU-US290-0050-08-058":{"sectionID":"HOU-US290-0050-08-058","Highway":"US 290","Refmark":null,"County":"Harris","District":"Houston","DataType":"General Sections"},"HOU-US290-0114-11-052":{"sectionID":"HOU-US290-0114-11-052","Highway":"US 290","Refmark":"694A+0.448 to 698A+0.394","County":"Waller","District":"Houston","DataType":"General Sections"},"HOU-US59- 0177-11-118":{"sectionID":"HOU-US59- 0177-11-118","Highway":"US 59","Refmark":"508+1.387 to 506+1.358","County":"Harris","District":"Houston","DataType":"General Sections"}}