{"WAC-IH35-0014-07-083":{"sectionID":"WAC-IH35-0014-07-083","Highway":"IH 36","Refmark":null,"County":"Hill","District":"Waco","DataType":"CPCD"},"WAC-IH35-0014-07-092":{"sectionID":"WAC-IH35-0014-07-092","Highway":"IH 35","Refmark":null,"County":"Hill","District":"Waco","DataType":"CPCD"},"WAC-IH35-0015-01-198":{"sectionID":"WAC-IH35-0015-01-198","Highway":"IH 35","Refmark":null,"County":"McLennan","District":"Waco ","DataType":"CPCD"},"WAC-IH35-0015-02-057":{"sectionID":"WAC-IH35-0015-02-057","Highway":"IH 35","Refmark":null,"County":"McLennan","District":"Waco","DataType":"CPCD"},"WAC-IH35-0015-07-063":{"sectionID":"WAC-IH35-0015-07-063","Highway":"IH 35","Refmark":"RM 278+0.151 RM 284+0.121","County":"BELL","District":"Waco","DataType":"CPCD"},"WAC-IH35-0015-08-120":{"sectionID":"WAC-IH35-0015-08-120","Highway":"IH 35","Refmark":"MP 276+0.569 RM 277+0.928","County":"BELL","District":"Waco","DataType":"CPCD"},"WAC-IH35-0015-14-112":{"sectionID":"WAC-IH35-0015-14-112","Highway":"IH 35","Refmark":null,"County":"Bell","District":"Waco","DataType":"CPCD"},"WAC-LP363-0184-04-025":{"sectionID":"WAC-LP363-0184-04-025","Highway":"LP 363","Refmark":null,"County":"Bell","District":"Waco","DataType":"CPCD"},"WAC-SH195-0836-02-057":{"sectionID":"WAC-SH195-0836-02-057","Highway":"SH 195","Refmark":null,"County":"Bell","District":"Waco","DataType":"CPCD"},"WAC-US84-6209-80-001":{"sectionID":"WAC-US84-6209-80-001","Highway":"US 84","Refmark":null,"County":"MCLENNAN","District":"Waco","DataType":"CPCD"},"WFS-   -0043-06-002":{"sectionID":"WFS-   -0043-06-002","Highway":null,"Refmark":null,"County":"Wichita","District":"Wichita Falls","DataType":null},"WFS-BU287J-0043-17-019":{"sectionID":"WFS-BU287J-0043-17-019","Highway":"BU 287J","Refmark":null,"County":"Wichita","District":"Wichita Falls","DataType":"CPCD"},"WFS-IH35-0194-02-075":{"sectionID":"WFS-IH35-0194-02-075","Highway":"IH 35","Refmark":null,"County":"Cooke","District":"Wichita Falls","DataType":"CPCD"},"WFS-IH35-0194-02-087":{"sectionID":"WFS-IH35-0194-02-087","Highway":"IH 35","Refmark":null,"County":"COOKE","District":"Wichita Falls","DataType":"CPCD"},"WFS-IH44-0043-09-106":{"sectionID":"WFS-IH44-0043-09-106","Highway":"IH 44","Refmark":null,"County":"Wichita","District":"Wichita Falls","DataType":"CPCD"},"WFS-IH44-0043-09-107":{"sectionID":"WFS-IH44-0043-09-107","Highway":"IH 44","Refmark":null,"County":"Wichita","District":"Wichita Falls","DataType":"CPCD"},"WFS-NRM 30&119-0043-09-002":{"sectionID":"WFS-NRM 30&119-0043-09-002","Highway":null,"Refmark":null,"County":"Wichita","District":"Wichita Falls","DataType":null},"WFS-NRM 3C&3B-0044-01-003":{"sectionID":"WFS-NRM 3C&3B-0044-01-003","Highway":null,"Refmark":null,"County":"Wichita","District":"Wichita Falls","DataType":null},"WFS-SH240-0156-03-044":{"sectionID":"WFS-SH240-0156-03-044","Highway":"SH 240","Refmark":null,"County":"Wichita","District":"Wichita Falls","DataType":"CPCD"},"WFS-SP1027-0194-02-004":{"sectionID":"WFS-SP1027-0194-02-004","Highway":"SP 1027 ","Refmark":null,"County":"Cooke","District":"Wichita Falls","DataType":"General Sections"},"WFS-US 81-0013-05-017":{"sectionID":"WFS-US 81-0013-05-017","Highway":"US 81","Refmark":null,"County":"Montague","District":"Wichita Falls","DataType":"General Sections"},"WFS-US287-0043-05-025":{"sectionID":"WFS-US287-0043-05-025","Highway":"US 287","Refmark":null,"County":"Wilbarger","District":"Wichita Falls","DataType":null},"WFS-US287-0043-05-034":{"sectionID":"WFS-US287-0043-05-034","Highway":"US 287","Refmark":null,"County":"Wilbarger","District":"Wichita Falls","DataType":null},"WFS-US287-0043-05-037":{"sectionID":"WFS-US287-0043-05-037","Highway":"US 287 ","Refmark":null,"County":"Wilbarger","District":"Wichita Falls","DataType":null},"WFS-US287-0043-05-043":{"sectionID":"WFS-US287-0043-05-043","Highway":"US 287 ","Refmark":null,"County":"Wilbarger","District":"Wichita Falls","DataType":null}}