{"DAL-SP244-0353-05-099":{"sectionID":"DAL-SP244-0353-05-099","Highway":"SP 244","Refmark":null,"County":"Dallas","District":"Dallas","DataType":"CPCD"},"DAL-SP348-0353-04-077":{"sectionID":"DAL-SP348-0353-04-077","Highway":"SP 348","Refmark":null,"County":"Dallas","District":"Dallas","DataType":"CPCD"},"DAL-SP366-0196-07-021":{"sectionID":"DAL-SP366-0196-07-021","Highway":"SP 366","Refmark":null,"County":"Dallas","District":"Dallas","DataType":"CPCD"},"DAL-SPUR 354-0196-06-017":{"sectionID":"DAL-SPUR 354-0196-06-017","Highway":"SPUR 354","Refmark":null,"County":"Dallas","District":"Dallas","DataType":"General Sections"},"DAL-US 175-0197-02-036":{"sectionID":"DAL-US 175-0197-02-036","Highway":"US 175","Refmark":null,"County":"Dallas","District":"Dallas","DataType":"CPCD"},"DAL-US 175-0197-03-047":{"sectionID":"DAL-US 175-0197-03-047","Highway":"US 175","Refmark":null,"County":"Kaufman","District":"Dallas","DataType":"CPCD"},"DAL-US 380-0134-09-023":{"sectionID":"DAL-US 380-0134-09-023","Highway":"US 380","Refmark":null,"County":"Denton","District":"Dallas","DataType":"CPCD"},"DAL-US 380-0135-02-030":{"sectionID":"DAL-US 380-0135-02-030","Highway":"US 380","Refmark":null,"County":"Collin","District":"Dallas","DataType":"CPCD"},"DAL-US 75-0047-06-066":{"sectionID":"DAL-US 75-0047-06-066","Highway":"US 75","Refmark":null,"County":"Collin","District":"Dallas","DataType":"CPCD"},"DAL-US 75-0047-06-068":{"sectionID":"DAL-US 75-0047-06-068","Highway":"US 75","Refmark":null,"County":"Collin","District":"Dallas","DataType":"CPCD"},"DAL-US 75-0047-06-069":{"sectionID":"DAL-US 75-0047-06-069","Highway":"US 75","Refmark":null,"County":"Collin/Grayson","District":"Dallas","DataType":"General Sections"},"DAL-US 75-0047-06-104":{"sectionID":"DAL-US 75-0047-06-104","Highway":"US 75","Refmark":null,"County":"COLLIN","District":"Dallas","DataType":"CPCD"},"DAL-US 75-0047-06-112":{"sectionID":"DAL-US 75-0047-06-112","Highway":"US 75","Refmark":null,"County":"COLLIN","District":"Dallas","DataType":"CPCD"},"DAL-US 75-0047-07-128":{"sectionID":"DAL-US 75-0047-07-128","Highway":"US 75","Refmark":null,"County":"Dallas","District":"Dallas","DataType":"General Sections"},"DAL-US 75-0047-07-157":{"sectionID":"DAL-US 75-0047-07-157","Highway":"US 75","Refmark":null,"County":"Dallas","District":"Dallas","DataType":"General Sections"},"DAL-US 77-0196-01-008":{"sectionID":"DAL-US 77-0196-01-008","Highway":"US 77","Refmark":null,"County":"Denton","District":"Dallas","DataType":"CPCD"},"DAL-US 77-0196-01-010":{"sectionID":"DAL-US 77-0196-01-010","Highway":"US 77","Refmark":null,"County":"Denton","District":"Dallas","DataType":"CPCD"},"DAL-US 77-0196-01-012":{"sectionID":"DAL-US 77-0196-01-012","Highway":"US 77","Refmark":null,"County":"Denton","District":"Dallas","DataType":"CPCD"},"DAL-US175-0197-02-092":{"sectionID":"DAL-US175-0197-02-092","Highway":"US 175","Refmark":null,"County":"Dallas","District":"Dallas","DataType":"CPCD"},"DAL-US175_0197-03-047":{"sectionID":"DAL-US175_0197-03-047","Highway":"US 175","Refmark":null,"County":"Kaufman","District":"Dallas","DataType":"CPCD"},"DAL-US287-0172-05-095":{"sectionID":"DAL-US287-0172-05-095","Highway":"US 287","Refmark":null,"County":"Ellis","District":"Dallas","DataType":"CPCD"},"DAL-US287-0172-05-104":{"sectionID":"DAL-US287-0172-05-104","Highway":"US 287","Refmark":null,"County":"Ellis","District":"Dallas","DataType":"CPCD"},"DAL-US287-0172-08-050":{"sectionID":"DAL-US287-0172-08-050","Highway":"US 287","Refmark":null,"County":"Ellis","District":"Dallas","DataType":"CPCD"},"DAL-US287-0172-13-001":{"sectionID":"DAL-US287-0172-13-001","Highway":"US 287","Refmark":null,"County":"Ellis","District":"Dallas","DataType":"CPCD"},"DAL-US377-0135-10-048":{"sectionID":"DAL-US377-0135-10-048","Highway":"US 377","Refmark":null,"County":"Denton","District":"Dallas","DataType":"CPCD"}}