{"BMT-SH124_0368-01-033":{"sectionID":"BMT-SH124_0368-01-033","Highway":"SH 124","Refmark":"MP 478+0.0 to 480+0.1","County":"Chambers","District":"Beaumont","DataType":"CPCD"},"BMT-SH146-0389-02-040":{"sectionID":"BMT-SH146-0389-02-040","Highway":"SH 146","Refmark":null,"County":"Chambers","District":"Beaumont","DataType":"CPCD"},"BMT-SH326-0601-01-001":{"sectionID":"BMT-SH326-0601-01-001","Highway":"SH 326","Refmark":null,"County":"Hardin","District":"Beaumont","DataType":"CPCD"},"BMT-SH326_0601-01-022":{"sectionID":"BMT-SH326_0601-01-022","Highway":"SH 326","Refmark":null,"County":"Hardin","District":"Beaumont","DataType":"CPCD"},"BMT-SH347-0667-01-110":{"sectionID":"BMT-SH347-0667-01-110","Highway":"SH 347","Refmark":null,"County":"Jefferson","District":"Beaumont","DataType":"CPCD"},"BMT-SH347_ 0667-01-008":{"sectionID":"BMT-SH347_ 0667-01-008","Highway":"SH 347","Refmark":null,"County":"Jefferson","District":"Beaumont","DataType":"CPCD"},"BMT-SH347_0667-01-023":{"sectionID":"BMT-SH347_0667-01-023","Highway":"SH 347","Refmark":null,"County":"Jefferson","District":"Beaumont","DataType":"CPCD"},"BMT-SH61_0508-03-062":{"sectionID":"BMT-SH61_0508-03-062","Highway":"SH 61","Refmark":"MP 812+0.981 to 822+0.186","County":"Chambers","District":"Beaumont","DataType":"CRCP"},"BMT-SH73_0508-03-009":{"sectionID":"BMT-SH73_0508-03-009","Highway":"SH 73","Refmark":null,"County":"Jefferson","District":"Beaumont","DataType":"CPCD"},"BMT-SH87_ 0306-03-023":{"sectionID":"BMT-SH87_ 0306-03-023","Highway":"SH 87","Refmark":null,"County":"Jefferson","District":"Beaumont","DataType":"CPCD"},"BMT-SH87_0306-03-023":{"sectionID":"BMT-SH87_0306-03-023","Highway":"SH 87","Refmark":"MP 494+0.0 to 496+1.2","County":"Jefferson","District":"Beaumont","DataType":"CPCD"},"BMT-SS380_ 0065-08-087":{"sectionID":"BMT-SS380_ 0065-08-087","Highway":"SS 380","Refmark":null,"County":"Jefferson","District":"Beaumont","DataType":"CPCD"},"BMT-SS380_0065-08-087":{"sectionID":"BMT-SS380_0065-08-087","Highway":"SS 380","Refmark":"MP 442+0.0 to 444+1.0","County":"Jefferson","District":"Beaumont","DataType":"CPJR"},"BMT-US 90-0028-03-081":{"sectionID":"BMT-US 90-0028-03-081","Highway":"US 90","Refmark":null,"County":"Liberty","District":"Beaumont","DataType":"CPCD"},"BMT-US59_0065-08-014":{"sectionID":"BMT-US59_0065-08-014","Highway":"US 59","Refmark":null,"County":"Jefferson","District":"Beaumont","DataType":"CPCD"},"BMT-US69-0200-15-013":{"sectionID":"BMT-US69-0200-15-013","Highway":"US 69","Refmark":null,"County":"Jefferson","District":"Beaumont","DataType":"CPCD"},"BMT-US69-0200-15-015":{"sectionID":"BMT-US69-0200-15-015","Highway":"US 69","Refmark":null,"County":"Jefferson","District":"Beaumont","DataType":"CPCD"},"BMT-US69-0200-16-012":{"sectionID":"BMT-US69-0200-16-012","Highway":"US 69","Refmark":null,"County":"Jefferson","District":"Beaumont","DataType":"CPCD"},"BMT-US69_ 0065-08-047":{"sectionID":"BMT-US69_ 0065-08-047","Highway":"US 69","Refmark":null,"County":"Jefferson","District":"Beaumont","DataType":"CPCD"},"BMT-US90-0028-13-012":{"sectionID":"BMT-US90-0028-13-012","Highway":"US 90","Refmark":null,"County":"Jefferson","District":"Beaumont","DataType":null},"BMT-US90_ 0028-07-024":{"sectionID":"BMT-US90_ 0028-07-024","Highway":"US 90","Refmark":null,"County":"Jefferson","District":"Beaumont","DataType":"CPCD"},"BMT-US90_ 0028-09-029":{"sectionID":"BMT-US90_ 0028-09-029","Highway":"US 90","Refmark":null,"County":"Orange","District":"Beaumont","DataType":"CPCD"},"BMT-US90_ 0028-11-024":{"sectionID":"BMT-US90_ 0028-11-024","Highway":"US 90","Refmark":null,"County":"Orange","District":"Beaumont","DataType":"CPCD"},"BMT-US90_ 0028-13-005":{"sectionID":"BMT-US90_ 0028-13-005","Highway":"US 90","Refmark":null,"County":"Jefferson","District":"Beaumont","DataType":"CPCD"},"BMT-US90_ 0028-13-009":{"sectionID":"BMT-US90_ 0028-13-009","Highway":"US 90","Refmark":null,"County":"Jefferson","District":"Beaumont","DataType":"CPCD"}}