{"WFS-US287-0043-05-098":{"sectionID":"WFS-US287-0043-05-098","Highway":"US 287","Refmark":"282+1.188 to 284+0.995","County":"Wilbarger","District":"Wichita Falls","DataType":null},"WFS-US287-0043-05-099":{"sectionID":"WFS-US287-0043-05-099","Highway":"US 287","Refmark":"284+0.010 to 288+1.269","County":"Wilbarger","District":"Wichita Falls","DataType":null},"WFS-US287-0043-05-100":{"sectionID":"WFS-US287-0043-05-100","Highway":"US 287","Refmark":"278+0.178 to 284+0.097","County":"Wilbarger","District":"Wichita Falls","DataType":null},"WFS-US287-0043-06-019":{"sectionID":"WFS-US287-0043-06-019","Highway":"US 287","Refmark":null,"County":"Wilbarger","District":"Wichita Falls","DataType":null},"WFS-US287-0043-06-021":{"sectionID":"WFS-US287-0043-06-021","Highway":"US 287","Refmark":null,"County":"Wilbarger","District":"Wichita Falls","DataType":null},"WFS-US287-0043-06-025":{"sectionID":"WFS-US287-0043-06-025","Highway":"US 287","Refmark":null,"County":"Wilbarger","District":"Wichita Falls","DataType":"General Sections"},"WFS-US287-0043-06-060":{"sectionID":"WFS-US287-0043-06-060","Highway":"US 287","Refmark":"474-0.518 to 474+0.424","County":"Wilbarger","District":"Wichita Falls","DataType":"General Sections"},"WFS-US287-0043-08-026":{"sectionID":"WFS-US287-0043-08-026","Highway":"US 287","Refmark":null,"County":"Wichita","District":"Wichita Falls","DataType":"General Sections"},"WFS-US287-0043-08-066":{"sectionID":"WFS-US287-0043-08-066","Highway":"US 287","Refmark":"316+0.028 to 322+0.586","County":"Wichita","District":"Wichita Falls","DataType":"General Sections"},"WFS-US287-0043-08-067":{"sectionID":"WFS-US287-0043-08-067","Highway":"US 287","Refmark":null,"County":"Wichita","District":"Wichita Falls","DataType":"General Sections"},"WFS-US287-0044-01-028":{"sectionID":"WFS-US287-0044-01-028","Highway":"US 287","Refmark":null,"County":"Wichita","District":"Wichita Falls","DataType":null},"WFS-US287-0044-01-034":{"sectionID":"WFS-US287-0044-01-034","Highway":"US 287","Refmark":null,"County":"Wichita","District":"Wichita Falls","DataType":"General Sections"},"WFS-US287-0044-01-071":{"sectionID":"WFS-US287-0044-01-071","Highway":"US 287","Refmark":"528A+0.127 to 530+0.000","County":"Wichita","District":"Wichita Falls","DataType":"General Sections"},"WFS-US287-0044-01-086":{"sectionID":"WFS-US287-0044-01-086","Highway":"US 287","Refmark":"530+0.000 to 532+0.277","County":"Clay","District":"Wichita Falls","DataType":"General Sections"},"WFS-US287-0044-02-072":{"sectionID":"WFS-US287-0044-02-072","Highway":"US 287","Refmark":null,"County":"Clay","District":"Wichita Falls","DataType":"CPCD"},"WFS-US287-0224-01-049":{"sectionID":"WFS-US287-0224-01-049","Highway":"US 287","Refmark":"366+0.177 to 372+1.152","County":"Clay","District":"Wichita Falls","DataType":"General Sections"},"WFS-US287-Level 2":{"sectionID":"WFS-US287-Level 2","Highway":"US 287","Refmark":null,"County":"Wichita","District":"Wichita Falls","DataType":"General Sections"},"WFS-US5-0043-06-006":{"sectionID":"WFS-US5-0043-06-006","Highway":"US 55","Refmark":null,"County":"Wilbarger","District":"Wichita Falls","DataType":null},"WFS-US70-0043-05-012":{"sectionID":"WFS-US70-0043-05-012","Highway":"US 70","Refmark":null,"County":"Wilbarger","District":"Wichita Falls","DataType":null},"WFS-US70-0043-06-054":{"sectionID":"WFS-US70-0043-06-054","Highway":"US 70","Refmark":null,"County":"Wilbarger","District":"Wichita Falls","DataType":"General Sections"},"WFS-US77-0194-02-015":{"sectionID":"WFS-US77-0194-02-015","Highway":"US 77","Refmark":null,"County":"Cooke","District":"Wichita Falls","DataType":"General Sections"},"WFS-US77-0194-02-017":{"sectionID":"WFS-US77-0194-02-017","Highway":"US 77","Refmark":null,"County":"Cooke","District":"Wichita Falls","DataType":"General Sections"},"WFS-US81-Level2":{"sectionID":"WFS-US81-Level2","Highway":"US 81","Refmark":"MP 220","County":"Montague","District":"Wichita Falls","DataType":"General Sections"},"WFS-US82-0044-01-080":{"sectionID":"WFS-US82-0044-01-080","Highway":"US 82","Refmark":null,"County":"Wichita","District":"Wichita Falls","DataType":"CPCD"},"WFS-US82-0156-04-075":{"sectionID":"WFS-US82-0156-04-075","Highway":"US 82","Refmark":"518+0.839 to 520+0.798","County":"Wichita","District":"Wichita Falls","DataType":"General Sections"}}