{"FTW-SH199-0171-05-055":{"sectionID":"FTW-SH199-0171-05-055","Highway":"SH 199","Refmark":"562+0.719 to 562+1.902","County":"Tarrant","District":"Ft. Worth","DataType":"General Sections"},"FTW-SH199-0171-05-074":{"sectionID":"FTW-SH199-0171-05-074","Highway":"SH 199","Refmark":"562+1.531 to 564+0.366","County":"Tarrant","District":"Ft. Worth","DataType":"General Sections"},"FTW-SH26-0363-01-099":{"sectionID":"FTW-SH26-0363-01-099","Highway":"SH 26","Refmark":null,"County":"Tarrant","District":"Ft. Worth","DataType":"General Sections"},"FTW-SH360-2266-02-096":{"sectionID":"FTW-SH360-2266-02-096","Highway":"SH 360","Refmark":"256+0.663 to 258+1.497","County":"Tarrant","District":"Ft. Worth","DataType":"General Sections"},"FTW-SH360-2266-02-097":{"sectionID":"FTW-SH360-2266-02-097","Highway":"SH 360","Refmark":"260+1.725 to 262+0.656","County":"Tarrant","District":"Ft. Worth","DataType":"General Sections"},"FTW-SH360-2266-02-103":{"sectionID":"FTW-SH360-2266-02-103","Highway":"SH 360","Refmark":"28+1.725 to 28+2.123","County":"Tarrant","District":"Ft. Worth","DataType":"General Sections"},"FTW-US287-0172-06-065":{"sectionID":"FTW-US287-0172-06-065","Highway":"US 287","Refmark":"460+0.517 to 460+0.517","County":"Tarrant","District":"Ft. Worth","DataType":"General Sections"},"FTW-US287-0172-09-013":{"sectionID":"FTW-US287-0172-09-013","Highway":"US 287","Refmark":"478+0.379 to 480+0.000","County":"Tarrant/Johnson","District":"Ft. Worth","DataType":"General Sections"},"HOU-CS-0912-72-010":{"sectionID":"HOU-CS-0912-72-010","Highway":"CS","Refmark":null,"County":"Harris","District":"Houston","DataType":"CPCD"},"HOU-FM 1764-0500-04-066":{"sectionID":"HOU-FM 1764-0500-04-066","Highway":"FM 1764","Refmark":null,"County":"Galveston","District":"Houston","DataType":"General Sections"},"HOU-FM 1764-1607-01-026":{"sectionID":"HOU-FM 1764-1607-01-026","Highway":"FM 1764","Refmark":null,"County":"Galveston","District":"Houston","DataType":"General Sections"},"HOU-FM 1764-1607-01-029":{"sectionID":"HOU-FM 1764-1607-01-029","Highway":"FM 1764","Refmark":null,"County":"Galveston","District":"Houston","DataType":"General Sections"},"HOU-FM 523-1003-01-060":{"sectionID":"HOU-FM 523-1003-01-060","Highway":"FM 523","Refmark":null,"County":"Brazoria","District":"Houston","DataType":"General Sections"},"HOU-FM1092-1257-01-044":{"sectionID":"HOU-FM1092-1257-01-044","Highway":"FM 1092","Refmark":null,"County":"Fort Bend ","District":"Houston","DataType":"CPCD"},"HOU-FM1488-0523-10-015":{"sectionID":"HOU-FM1488-0523-10-015","Highway":"FM 1488","Refmark":"672+1.610 to 674+2.114","County":"Montgomery","District":"Houston","DataType":"General Sections"},"HOU-FM1488-0523-10-033":{"sectionID":"HOU-FM1488-0523-10-033","Highway":"FM 1488","Refmark":"676+0.935 to 680+0.058","County":"Montgomery","District":"Houston","DataType":"General Sections"},"HOU-FM1764_0500-04-066":{"sectionID":"HOU-FM1764_0500-04-066","Highway":"FM 1764","Refmark":null,"County":"Galveston","District":"Houston","DataType":"General Sections"},"HOU-FM1764_1607-01-026":{"sectionID":"HOU-FM1764_1607-01-026","Highway":"FM 1764","Refmark":null,"County":"Galveston","District":"Houston","DataType":"General Sections"},"HOU-FM1764_1607-01-029":{"sectionID":"HOU-FM1764_1607-01-029","Highway":"FM 1764","Refmark":null,"County":"Galveston","District":"Houston","DataType":"General Sections"},"HOU-FM518-0976-03-049":{"sectionID":"HOU-FM518-0976-03-049","Highway":"FM 518","Refmark":null,"County":"Galveston","District":"Houston","DataType":"CPCD"},"HOU-FM523_1003-01-060":{"sectionID":"HOU-FM523_1003-01-060","Highway":"FM 523","Refmark":null,"County":"Brazoria","District":"Houston","DataType":"General Sections"},"HOU-IH 45-0500-04-029":{"sectionID":"HOU-IH 45-0500-04-029","Highway":"IH 45","Refmark":null,"County":"Galveston","District":"Houston","DataType":"General Sections"},"HOU-IH 45-0500-04-040":{"sectionID":"HOU-IH 45-0500-04-040","Highway":"IH 45","Refmark":null,"County":"Galveston","District":"Houston","DataType":"General Sections"},"HOU-IH 45-0500-04-043":{"sectionID":"HOU-IH 45-0500-04-043","Highway":"IH 45","Refmark":null,"County":"Galveston","District":"Houston","DataType":"General Sections"},"HOU-IH 45-0500-04-055":{"sectionID":"HOU-IH 45-0500-04-055","Highway":"IH 45","Refmark":null,"County":"Galveston","District":"Houston","DataType":"General Sections"}}