{"DAL-VA-0918-24-128":{"sectionID":"DAL-VA-0918-24-128","Highway":"VA","Refmark":null,"County":"Collin","District":"Dallas","DataType":"CPCD"},"DAL-VA-0918-24-131":{"sectionID":"DAL-VA-0918-24-131","Highway":"VA","Refmark":null,"County":"Collin","District":"Dallas","DataType":"CPCD"},"DAL-VA-0918-24-140":{"sectionID":"DAL-VA-0918-24-140","Highway":"VA","Refmark":null,"County":"Collin","District":"Dallas","DataType":"CPCD"},"DAL-VA-0918-24-164":{"sectionID":"DAL-VA-0918-24-164","Highway":"VA","Refmark":null,"County":"Collin","District":"Dallas","DataType":"CPCD"},"DAL-VA-0918-45-643":{"sectionID":"DAL-VA-0918-45-643","Highway":"VA","Refmark":null,"County":"Dallas","District":"Dallas","DataType":"CPCD"},"DAL-VA-0918-45-683":{"sectionID":"DAL-VA-0918-45-683","Highway":"VA","Refmark":null,"County":"Dallas","District":"Dallas","DataType":"CPCD"},"ELP-US54-0167-01-081":{"sectionID":"ELP-US54-0167-01-081","Highway":"US 54","Refmark":null,"County":"El Paso","District":"El Paso","DataType":"CPCD"},"ELP-VA-0924-06-133":{"sectionID":"ELP-VA-0924-06-133","Highway":"VA","Refmark":null,"County":"El Paso","District":"El Paso","DataType":"CPCD"},"FTW- IH35W-0081-12-020":{"sectionID":"FTW- IH35W-0081-12-020","Highway":"IH 35W","Refmark":"60+0.830 to 62+0.157","County":"Tarrant","District":"Ft. Worth","DataType":"General Sections"},"FTW-BU287P-0172-01-035":{"sectionID":"FTW-BU287P-0172-01-035","Highway":"BU 287P","Refmark":"279+8.753 to 280+0.157","County":"Tarrant","District":"Ft. Worth","DataType":"General Sections"},"FTW-BU287P-0172-02-056":{"sectionID":"FTW-BU287P-0172-02-056","Highway":"BU 287P","Refmark":"280+0.524 to 280+3.625","County":"Tarrant","District":"Ft. Worth","DataType":"General Sections"},"FTW-FM157-0747-03-052":{"sectionID":"FTW-FM157-0747-03-052","Highway":"FM 157","Refmark":"266+0.048 to 266+1.707","County":"Tarrant","District":"Ft. Worth","DataType":"General Sections"},"FTW-FM157-0747-03-073":{"sectionID":"FTW-FM157-0747-03-073","Highway":"FM 157","Refmark":"264+0.779 to 266+0.048","County":"Tarrant","District":"Ft. Worth","DataType":"General Sections"},"FTW-IH20-0314-04-032":{"sectionID":"FTW-IH20-0314-04-032","Highway":"IH 20","Refmark":"364+0.240 to 372+0.149","County":"Erath","District":"Ft. Worth","DataType":"General Sections"},"FTW-IH20-2374-05-054":{"sectionID":"FTW-IH20-2374-05-054","Highway":"IH 20","Refmark":"448.759 to 450.679","County":"Tarrant","District":"Ft. Worth","DataType":"General Sections"},"FTW-IH30-1068-02-119":{"sectionID":"FTW-IH30-1068-02-119","Highway":"IH 30","Refmark":null,"County":"Tarrant","District":"Ft Worth","DataType":"CPCD"},"FTW-IH30R-1068-01-158":{"sectionID":"FTW-IH30R-1068-01-158","Highway":"IH 30","Refmark":"12+0.773 to 15+0.498","County":"Tarrant","District":"Ft. Worth","DataType":"General Sections"},"FTW-IH35W-0014-02-038":{"sectionID":"FTW-IH35W-0014-02-038","Highway":"IH 35W","Refmark":"39+0.160 to 38+0.222","County":"Tarrant","District":"Ft. Worth","DataType":"General Sections"},"FTW-IH820-0008-14-086":{"sectionID":"FTW-IH820-0008-14-086","Highway":"IH 820","Refmark":"20.0744 to 21.0029","County":"Tarrant","District":"Ft. Worth","DataType":"General Sections"},"FTW-IH820F-0008-14-096":{"sectionID":"FTW-IH820F-0008-14-096","Highway":"IH 820 ","Refmark":"17+0.930 to 17+1.387","County":"Tarrant","District":"Ft. Worth","DataType":"General Sections"},"FTW-SH114-0353-03-072":{"sectionID":"FTW-SH114-0353-03-072","Highway":"SH 114","Refmark":"602+1.576 to 604+0.714","County":"Tarrant","District":"Ft. Worth","DataType":"General Sections"},"FTW-SH114-0353-03-073":{"sectionID":"FTW-SH114-0353-03-073","Highway":"SH 114","Refmark":null,"County":"Tarrant","District":"Ft. Worth","DataType":"General Sections"},"FTW-SH114F-0353-03-075":{"sectionID":"FTW-SH114F-0353-03-075","Highway":"SH 114","Refmark":null,"County":"Tarrant","District":"Ft. Worth","DataType":"General Sections"},"FTW-SH121-0353-03-076":{"sectionID":"FTW-SH121-0353-03-076","Highway":"SH 121","Refmark":"286+0.55","County":"Tarrant","District":"Ft. Worth","DataType":"General Sections"},"FTW-SH121-0364-01-118":{"sectionID":"FTW-SH121-0364-01-118","Highway":"SH 121","Refmark":"286+0.371 to 286+0.055","County":"Tarrant","District":"Ft. Worth","DataType":"General Sections"}}