{"AUS-VA-0914-04-160":{"sectionID":"AUS-VA-0914-04-160","Highway":"VA","Refmark":null,"County":"Travis","District":"Austin","DataType":"CPCD"},"AUS[PCP]":{"sectionID":"AUS[PCP]","Highway":"IH 35","Refmark":" Frontage Road in Georgetown","County":null,"District":"Austin","DataType":"Precast Pavement"},"BMT- IH 10-0508-03-062":{"sectionID":"BMT- IH 10-0508-03-062","Highway":"IH 10","Refmark":null,"County":"Chambers","District":"Beaumont","DataType":"CPCD"},"BMT-BU90-Y-0028-15-040":{"sectionID":"BMT-BU90-Y-0028-15-040","Highway":"BU90-Y","Refmark":null,"County":"Orange","District":"Beaumont","DataType":"CPCD"},"BMT-CS-0920-38-151":{"sectionID":"BMT-CS-0920-38-151","Highway":"CS","Refmark":null,"County":"Jefferson","District":"Beaumont","DataType":"CPCD"},"BMT-FM1960-0762-01-026":{"sectionID":"BMT-FM1960-0762-01-026","Highway":"FM 1960","Refmark":null,"County":"Liberty","District":"Beaumont","DataType":"CPCD"},"BMT-FM364-0786-01-070":{"sectionID":"BMT-FM364-0786-01-070","Highway":"FM 364","Refmark":null,"County":"Jefferson","District":"Beaumont","DataType":"CPCD"},"BMT-FM364_ 0786-01-062":{"sectionID":"BMT-FM364_ 0786-01-062","Highway":"FM 364","Refmark":"MP 440+0.502 to 443+0.485","County":"Jefferson","District":"Beaumont","DataType":"CPCD"},"BMT-FM365-0932-01-091":{"sectionID":"BMT-FM365-0932-01-091","Highway":"FM 365","Refmark":null,"County":"Jefferson","District":"Beaumont","DataType":"CPCD"},"BMT-IH 10-0028-09-087":{"sectionID":"BMT-IH 10-0028-09-087","Highway":"IH 10","Refmark":"855+0.497 to 860+0.346","County":"Orange","District":"Beaumont","DataType":"General Sections"},"BMT-IH10-0028-09-100":{"sectionID":"BMT-IH10-0028-09-100","Highway":"IH 10","Refmark":null,"County":"Orange","District":"Beaumont","DataType":"CPCD"},"BMT-IH10-0028-13-124":{"sectionID":"BMT-IH10-0028-13-124","Highway":"IH 10","Refmark":null,"County":"Jefferson","District":"Beaumont","DataType":"CPCD"},"BMT-IH10-0508-02-091":{"sectionID":"BMT-IH10-0508-02-091","Highway":"IH 10","Refmark":null,"County":"Chambers","District":"Beaumont","DataType":"CPCD"},"BMT-IH10_0028-09-087":{"sectionID":"BMT-IH10_0028-09-087","Highway":"IH 10","Refmark":"MP 855+0.497 to 860+0.346","County":"Orange","District":"Beaumont","DataType":"CPCD"},"BMT-IH10_0028-13-018":{"sectionID":"BMT-IH10_0028-13-018","Highway":"IH 10","Refmark":null,"County":"Jefferson","District":"Beaumont","DataType":"CPCD"},"BMT-IH10_0508-03-062":{"sectionID":"BMT-IH10_0508-03-062","Highway":"IH 10","Refmark":"MP 813+0.6 to 827+0.0","County":"Chambers","District":"Beaumont","DataType":"CPCD"},"BMT-SH 347-0667-01-031":{"sectionID":"BMT-SH 347-0667-01-031","Highway":"SH 347","Refmark":null,"County":"Jefferson","District":"Beaumont","DataType":"General Sections"},"BMT-SH 347-0667-01-032":{"sectionID":"BMT-SH 347-0667-01-032","Highway":"SH 347","Refmark":null,"County":"Jefferson","District":"Beaumont","DataType":"General Sections"},"BMT-SH 347-0667-01-102":{"sectionID":"BMT-SH 347-0667-01-102","Highway":"SH 347","Refmark":null,"County":"Jefferson","District":"Beaumont","DataType":"General Sections"},"BMT-SH105-0339-03-033":{"sectionID":"BMT-SH105-0339-03-033","Highway":"SH 105","Refmark":null,"County":"Hardin","District":"Beaumont","DataType":"CPCD"},"BMT-SH105-0339-04-032":{"sectionID":"BMT-SH105-0339-04-032","Highway":"SH 105","Refmark":"RM 764+0.905 RM 772+0.119","County":"HARDIN","District":"Beaumont","DataType":null},"BMT-SH12-0499-02-026":{"sectionID":"BMT-SH12-0499-02-026","Highway":"SH 12","Refmark":null,"County":"Newton","District":"Beaumont","DataType":"CPCD"},"BMT-SH124-0368-02-003":{"sectionID":"BMT-SH124-0368-02-003","Highway":"SH 124","Refmark":null,"County":"Jefferson","District":"Beaumont","DataType":null},"BMT-SH124-0368-02-040":{"sectionID":"BMT-SH124-0368-02-040","Highway":"SH 124","Refmark":null,"County":"Jefferson","District":"Beaumont","DataType":"CPCD"},"BMT-SH124_ 0368-01-033":{"sectionID":"BMT-SH124_ 0368-01-033","Highway":"SH 124","Refmark":null,"County":"Chambers","District":"Beaumont","DataType":"CPCD"}}