{"ODA250-2[WT]":{"sectionID":"ODA250-2[WT]","Highway":"ODA 250-2","Refmark":null,"County":null,"District":"Odessa","DataType":"Whitetopping"},"PAR-IH 30-0009-09-059":{"sectionID":"PAR-IH 30-0009-09-059","Highway":"IH 30","Refmark":null,"County":"Hopkins","District":"Paris","DataType":"General Sections"},"PAR-US75-0047-03-071":{"sectionID":"PAR-US75-0047-03-071","Highway":"US 75","Refmark":null,"County":"Grayson","District":"Paris","DataType":"CPCD"},"PAR-US75-0047-18-055":{"sectionID":"PAR-US75-0047-18-055","Highway":"US 75","Refmark":null,"County":"Grayson","District":"Paris","DataType":"CPCD"},"PAR-US82-1690-01-100":{"sectionID":"PAR-US82-1690-01-100","Highway":"US 82","Refmark":null,"County":"Lamar","District":"Paris","DataType":"CPCD"},"SAT-VA-0915-12-036":{"sectionID":"SAT-VA-0915-12-036","Highway":"VA","Refmark":null,"County":"Bexar","District":"San Antonio","DataType":"CPCD"},"SAT-VA-0915-47-003":{"sectionID":"SAT-VA-0915-47-003","Highway":"VA","Refmark":null,"County":"Bandera","District":"San Antonio","DataType":"CPCD"},"SH-6@US59[FT]":{"sectionID":"SH-6@US59[FT]","Highway":"SH 6","Refmark":null,"County":null,"District":"Houston","DataType":"Fast Track Pavement"},"SH146[BCO]":{"sectionID":"SH146[BCO]","Highway":"SH 146","Refmark":null,"County":null,"District":"Houston","DataType":"Bonded Overlay"},"SH6-WT[FT]":{"sectionID":"SH6-WT[FT]","Highway":"SH 6","Refmark":null,"County":null,"District":"Houston","DataType":"Fast Track Pavement"},"SJT-IH635-2574-01-038":{"sectionID":"SJT-IH635-2574-01-038","Highway":"IH 635","Refmark":null,"County":"Tom Green","District":"San Angelo","DataType":"CPCD"},"SJT-US377-0201-04-022":{"sectionID":"SJT-US377-0201-04-022","Highway":"US 377","Refmark":null,"County":"Edwards","District":"San Angelo","DataType":"CPCD"},"TYL-FM85-0697-02-028":{"sectionID":"TYL-FM85-0697-02-028","Highway":"FM 85","Refmark":"MP 624+0.770 RM 625+0.121","County":"HENDERSON","District":"Tayler","DataType":"CPCD"},"TYL-LP281-2642-01-038":{"sectionID":"TYL-LP281-2642-01-038","Highway":"LP 281","Refmark":null,"County":"Gregg","District":"Tyler","DataType":"CPCD"},"TYL-LP323-1790-02-027":{"sectionID":"TYL-LP323-1790-02-027","Highway":"LP 323","Refmark":null,"County":"Smith","District":"Tyler","DataType":"CPCD"},"TYL-SH19-0108-02-025":{"sectionID":"TYL-SH19-0108-02-025","Highway":"SH 19","Refmark":null,"County":"Van Zandt","District":"Tyler","DataType":"CPCD"},"TYL-SH198-1668-01-013":{"sectionID":"TYL-SH198-1668-01-013","Highway":"SH 198","Refmark":null,"County":"Henderson","District":"Tyler","DataType":"CPCD"},"TYL-SH334-0697-02-028":{"sectionID":"TYL-SH334-0697-02-028","Highway":"SH 334","Refmark":null,"County":"Henderson","District":"Tyler","DataType":"CPCD"},"TYL-US259-0138-02-034":{"sectionID":"TYL-US259-0138-02-034","Highway":"US 259","Refmark":null,"County":"Rusk","District":"Tyler","DataType":"CPCD"},"TYL-US259-0138-03-137":{"sectionID":"TYL-US259-0138-03-137","Highway":"US 259","Refmark":null,"County":"Rusk","District":"Tyler","DataType":"CPCD"},"US281[BCO]":{"sectionID":"US281[BCO]","Highway":"US 281","Refmark":null,"County":null,"District":"Wichita Falls","DataType":"Bonded Overlay"},"US75[BCO]":{"sectionID":"US75[BCO]","Highway":"US 75","Refmark":null,"County":null,"District":"Paris","DataType":"Bonded Overlay"},"WAC-FM1695-2506-01-021":{"sectionID":"WAC-FM1695-2506-01-021","Highway":"FM 1695","Refmark":null,"County":"McLennan","District":"Waco","DataType":"CPCD"},"WAC-FM3476-0015-21-006":{"sectionID":"WAC-FM3476-0015-21-006","Highway":"FM 3476","Refmark":null,"County":"McLennan","District":"Waco","DataType":"CPCD"},"WAC-FM933-0209-07-031":{"sectionID":"WAC-FM933-0209-07-031","Highway":"FM 933","Refmark":null,"County":"McLennan","District":"Waco","DataType":"CPCD"}}