{"12-441-1-2":{"sectionID":"12-441-1-2","Highway":"IH 45","Refmark":"Exit 72B","County":"Montgomery","District":"Houston","DataType":"Level 1 Sections"},"12-US290-1":{"sectionID":"12-US290-1","Highway":"US 290","Refmark":null,"County":"Waller","District":"Houston","DataType":"Level 1 Sections"},"12-US290-2":{"sectionID":"12-US290-2","Highway":"US 290","Refmark":null,"County":"Waller","District":"Houston","DataType":"Level 1 Sections"},"12-US290-3":{"sectionID":"12-US290-3","Highway":"US 290","Refmark":null,"County":"Waller","District":"Houston","DataType":"Level 1 Sections"},"18-I30-1":{"sectionID":"18-I30-1","Highway":"IH 30","Refmark":"MP 8.8","County":"Dallas","District":"Dallas","DataType":"Level 1 Sections"},"19-US59-1":{"sectionID":"19-US59-1","Highway":"US 59","Refmark":"MP 218-0.4","County":"Bowie","District":"Atlanta","DataType":"Level 1 Sections"},"19-US59-2":{"sectionID":"19-US59-2","Highway":"US 59","Refmark":"MP 218-0.4","County":"Cass","District":"Atlanta","DataType":"Level 1 Sections"},"2-I35-1":{"sectionID":"2-I35-1","Highway":"IH 35W","Refmark":"MP 41","County":"Tarrant","District":"Ft Worth","DataType":"Level 1 Sections"},"2-I820-1":{"sectionID":"2-I820-1","Highway":"IH 820","Refmark":"MP 11","County":"Tarrant","District":"Ft Worth","DataType":"Level 1 Sections"},"20-I10-1":{"sectionID":"20-I10-1","Highway":"IH 10","Refmark":"MP 858+0.2","County":"Orange","District":"Beaumont","DataType":"Level 1 Sections"},"24-I10-1":{"sectionID":"24-I10-1","Highway":"IH 10","Refmark":"MP 36+0.3","County":"El Paso","District":"El Paso","DataType":"Level 1 Sections"},"24-I10-2":{"sectionID":"24-I10-2","Highway":"IH 10","Refmark":"MP 39+0.3","County":"El Paso","District":"El Paso","DataType":"Level 1 Sections"},"24-I10-3":{"sectionID":"24-I10-3","Highway":"IH 10","Refmark":"MP 45+ 0.1","County":"El Paso","District":"El Paso","DataType":"Level 1 Sections"},"24-I10-4":{"sectionID":"24-I10-4","Highway":"IH 10","Refmark":"MP 85","County":"Hudspeth","District":"El Paso","DataType":"Level 1 Sections"},"25-I40-1":{"sectionID":"25-I40-1","Highway":"IH 40","Refmark":"MP 158.52","County":"Wheeler","District":"Childress","DataType":"Level 1 Sections"},"25-I40-2":{"sectionID":"25-I40-2","Highway":"IH 40","Refmark":"MP 147-0.15","County":"Wheeler","District":"Childress","DataType":"Level 1 Sections"},"3-I35-1":{"sectionID":"3-I35-1","Highway":"IH 35","Refmark":"MP 484+0.5","County":"Cooke","District":"Wichita Falls","DataType":"Level 1 Sections"},"3-US287-1":{"sectionID":"3-US287-1","Highway":"US 287","Refmark":"MP 330","County":"Wichita","District":"Wichita Falls","DataType":"Level 1 Sections"},"3-US287-2":{"sectionID":"3-US287-2","Highway":"US 287","Refmark":null,"County":"Wichita","District":"Wichita Falls","DataType":"Level 1 Sections"},"3-US81-1":{"sectionID":"3-US81-1","Highway":"US 81","Refmark":"MP 220","County":"Montague","District":"Wichita Falls","DataType":"Level 1 Sections"},"4-I40-1":{"sectionID":"4-I40-1","Highway":"IH 40","Refmark":"MP 33+287ft.","County":"Oldham","District":"Amarillo","DataType":"Level 1 Sections"},"48-3569-IH30-LTPP":{"sectionID":"48-3569-IH30-LTPP","Highway":"IH 30","Refmark":"MP 115.3","County":"Hopkins","District":"Paris","DataType":"LTPP Sections"},"48-5154-IH10-LTPP":{"sectionID":"48-5154-IH10-LTPP","Highway":"IH 10","Refmark":"MP 655.5","County":"Gonzales","District":"Yoakum","DataType":"LTPP Sections"},"5-I27-1":{"sectionID":"5-I27-1","Highway":"IH 27","Refmark":"MP 43+0.22","County":"Hale","District":"Lubbock","DataType":"Level 1 Sections"},"5-Loop_289-1":{"sectionID":"5-Loop_289-1","Highway":"SL 289","Refmark":null,"County":"Lubbock","District":"Lubbock","DataType":"Level 1 Sections"}}