{"HOU-IH 45-0500-04-056":{"sectionID":"HOU-IH 45-0500-04-056","Highway":"IH 45","Refmark":null,"County":"Galveston","District":"Houston","DataType":"General Sections"},"HOU-IH 45-0500-04-085":{"sectionID":"HOU-IH 45-0500-04-085","Highway":"IH 45","Refmark":null,"County":"Galveston","District":"Houston","DataType":"General Sections"},"HOU-IH 45-0500-04-092":{"sectionID":"HOU-IH 45-0500-04-092","Highway":"IH 45","Refmark":null,"County":"Galveston","District":"Houston","DataType":"General Sections"},"HOU-IH 45-0500-04-118":{"sectionID":"HOU-IH 45-0500-04-118","Highway":"IH 45","Refmark":null,"County":"Galveston","District":"Houston","DataType":"General Sections"},"HOU-IH10-0271-04-080":{"sectionID":"HOU-IH10-0271-04-080","Highway":"IH 10","Refmark":null,"County":"Waller","District":"Houston","DataType":"CPCD"},"HOU-IH10-0271-07-244":{"sectionID":"HOU-IH10-0271-07-244","Highway":"IH 10","Refmark":"762+0.596 to 763+0.483","County":"Harris","District":"Houston","DataType":"General Sections"},"HOU-IH10-0271-07-245":{"sectionID":"HOU-IH10-0271-07-245","Highway":"IH 10","Refmark":"759+0.29 to 762+0.506","County":"Harris","District":"Houston","DataType":"General Sections"},"HOU-IH10-0271-07-248":{"sectionID":"HOU-IH10-0271-07-248","Highway":"IH 10","Refmark":"755+0.339 to 757+0.336","County":"Harris","District":"Houston","DataType":"General Sections"},"HOU-IH10-0271-07-249":{"sectionID":"HOU-IH10-0271-07-249","Highway":"IH 10","Refmark":"749+0.785 to 753+0.519","County":"Harris","District":"Houston","DataType":"General Sections"},"HOU-IH10-0271-07-254":{"sectionID":"HOU-IH10-0271-07-254","Highway":"IH 10","Refmark":"753+0.519 to 755+0.320","County":"Harris","District":"Houston","DataType":"General Sections"},"HOU-IH10-0271-07-274":{"sectionID":"HOU-IH10-0271-07-274","Highway":"IH 10","Refmark":"763+0.514 to 764+0.440","County":"Harris","District":"Houston","DataType":"General Sections"},"HOU-IH45-0110-04-122":{"sectionID":"HOU-IH45-0110-04-122","Highway":"IH 45","Refmark":"83+0.238 to 81+0.677","County":"Montgomery","District":"Houston","DataType":"General Sections"},"HOU-IH45-0110-04-127":{"sectionID":"HOU-IH45-0110-04-127","Highway":"IH 45","Refmark":null,"County":"Montgomery","District":"Houston","DataType":"General Sections"},"HOU-IH45-0110-04-141":{"sectionID":"HOU-IH45-0110-04-141","Highway":"IH 45","Refmark":"81+0.810 to 77+0.264","County":"Montgomery","District":"Houston","DataType":"General Sections"},"HOU-IH45-0110-04-143":{"sectionID":"HOU-IH45-0110-04-143","Highway":"IH 45","Refmark":"82+0.947 to 81+0.59","County":"Montgomery","District":"Houston","DataType":"General Sections"},"HOU-IH45-0110-04-164":{"sectionID":"HOU-IH45-0110-04-164","Highway":"IH 45","Refmark":"84+0.621 to 83+0.238","County":"Montgomery","District":"Houston","DataType":"General Sections"},"HOU-IH45-0110-04-176":{"sectionID":"HOU-IH45-0110-04-176","Highway":"IH 45","Refmark":"076+0.229 to 074+0.057","County":"Montgomery","District":"Houston","DataType":"General Sections"},"HOU-IH45-0110-05-063":{"sectionID":"HOU-IH45-0110-05-063","Highway":"IH 45","Refmark":"64+0.346 to 66+0.187","County":"Harris","District":"Houston","DataType":"General Sections"},"HOU-IH45-0110-05-069":{"sectionID":"HOU-IH45-0110-05-069","Highway":"IH 45","Refmark":"66+0.187 to 68+0.643","County":"Harris","District":"Houston","DataType":"General Sections"},"HOU-IH45-0110-05-070":{"sectionID":"HOU-IH45-0110-05-070","Highway":"IH 45","Refmark":"64+0.336","County":"Harris","District":"Houston","DataType":"General Sections"},"HOU-IH45-0110-05-077":{"sectionID":"HOU-IH45-0110-05-077","Highway":"IH 45","Refmark":"68+0.515 to 68+0.965","County":"Harris","District":"Houston","DataType":"General Sections"},"HOU-IH45-0110-06-102":{"sectionID":"HOU-IH45-0110-06-102","Highway":"IH 45","Refmark":"59+0.939 to 62+0.459","County":"Harris","District":"Houston","DataType":"General Sections"},"HOU-IH45-0675-08-096":{"sectionID":"HOU-IH45-0675-08-096","Highway":"IH 45","Refmark":"89+0.828 to 89+0.554","County":"Montgomery","District":"Houston","DataType":"General Sections"},"HOU-IH45_0500-04-029":{"sectionID":"HOU-IH45_0500-04-029","Highway":"IH 45","Refmark":null,"County":"Galveston","District":"Houston","DataType":"General Sections"},"HOU-IH45_0500-04-040":{"sectionID":"HOU-IH45_0500-04-040","Highway":"IH 45","Refmark":null,"County":"Galveston","District":"Houston","DataType":"General Sections"}}